{"fetched_at":"2026-07-06T08:47:26.353Z","source":"https://celestrak.org/NORAD/elements/gp.php?NAME=TIGER&FORMAT=JSON","constellation":"oq-technology","records":[{"OBJECT_NAME":"TIGER-8","OBJECT_ID":"2024-043Y","EPOCH":"2026-07-04T23:12:06.020640","CLASSIFICATION_TYPE":"U","MEAN_MOTION":15.45021866,"ECCENTRICITY":0.0008621,"INCLINATION":97.557,"RA_OF_ASC_NODE":335.3005,"ARG_OF_PERICENTER":134.0807,"MEAN_ANOMALY":226.1152,"EPHEMERIS_TYPE":0,"NORAD_CAT_ID":59120,"ELEMENT_SET_NO":999,"REV_AT_EPOCH":13053,"BSTAR":0.0003271,"MEAN_MOTION_DOT":0.00015371,"MEAN_MOTION_DDOT":0},{"OBJECT_NAME":"TIGER-7","OBJECT_ID":"2024-043AV","EPOCH":"2026-07-05T09:59:01.224096","CLASSIFICATION_TYPE":"U","MEAN_MOTION":15.49177798,"ECCENTRICITY":0.0006845,"INCLINATION":97.5506,"RA_OF_ASC_NODE":338.2193,"ARG_OF_PERICENTER":103.9103,"MEAN_ANOMALY":256.2909,"EPHEMERIS_TYPE":0,"NORAD_CAT_ID":59141,"ELEMENT_SET_NO":999,"REV_AT_EPOCH":13079,"BSTAR":0.00035244,"MEAN_MOTION_DOT":0.00019128,"MEAN_MOTION_DDOT":0}]}
